STARLINK-37054          
1 68082U 26042P   26087.20977526  .00516566  00000+0  24291-2 0  9997
2 68082  53.1580 101.8484 0002399 170.3112 189.7958 15.81214061  5014
STARLINK-37065          
1 68083U 26042Q   26086.48016872  .00365638  00000+0  22573-2 0  9998
2 68083  53.1585 105.8417 0001294 183.6169 176.4842 15.75546988  4891
STARLINK-37037          
1 68084U 26042R   26087.22336670  .00263737  00000+0  16578-2 0  9998
2 68084  53.1595 101.9372 0001246  68.9955 291.1199 15.75428835  5010
STARLINK-37068          
1 68085U 26042S   26087.16668981 -.00062198  00000+0 -40441-3 0  9992
2 68085  53.1591 102.0637 0001123  90.8436  23.0903 15.75246869  5026
STARLINK-37067          
1 68086U 26042T   26087.20677460  .00432294  00000+0  20705-2 0  9996
2 68086  53.1582 101.8267 0001070  17.5643 342.5416 15.81034766  5015
STARLINK-37062          
1 68087U 26042U   26086.76349593  .00400558  00000+0  19312-2 0  9990
2 68087  53.1576 104.0397 0001888  71.4956 288.6272 15.80975264  4948
STARLINK-37059          
1 68088U 26042V   26087.16668981 -.01940069  00000+0 -12708-1 0  9991
2 68088  53.1583 102.0158 0001049  75.2600  62.2584 15.78318545  5029
STARLINK-37004          
1 68089U 26042W   26087.16668981 -.00166244  00000+0 -10977-2 0  9993
2 68089  53.1590 102.0595 0001302 101.7542  14.0278 15.75322328  5021
STARLINK-36320          
1 68090U 26042X   26086.15385821  .00375248  00000+0  23254-2 0  9998
2 68090  53.1593 107.3571 0002763 139.4736 220.6491 15.75432358  4849
STARLINK-36324          
1 68091U 26042Y   26086.66668981 -.00080651  00000+0 -52598-3 0  9993
2 68091  53.1590 104.8665 0001015  79.2879 283.0326 15.75281960  4932
STARLINK-36896          
1 68092U 26042Z   26086.46655272  .00204089  00000+0  13015-2 0  9992
2 68092  53.1600 105.7516 0001471  99.5875 260.5312 15.75276808  4881
STARLINK-36251          
1 68093U 26042AA  26086.75825293  .00432595  00000+0  20763-2 0  9990
2 68093  53.1578 104.0040 0003313  80.0074 280.1322 15.80988044  4936
