CCSDS_OMM_VERS = 2.0
CREATION_DATE  = 
ORIGINATOR     = 

OBJECT_NAME    = STARLINK-37054
OBJECT_ID      = 2026-042P
CENTER_NAME    = EARTH
REF_FRAME      = TEME
TIME_SYSTEM    = UTC
MEAN_ELEMENT_THEORY = SGP/SGP4

EPOCH          = 2026-03-28T05:02:04.582464
MEAN_MOTION    = 15.81214061
ECCENTRICITY   = .0002399
INCLINATION    = 53.1580
RA_OF_ASC_NODE = 101.8484
ARG_OF_PERICENTER = 170.3112
MEAN_ANOMALY   = 189.7958

EPHEMERIS_TYPE = 0
CLASSIFICATION_TYPE = U
NORAD_CAT_ID   = 68082
ELEMENT_SET_NO = 999
REV_AT_EPOCH   = 501
BSTAR          = .24291E-2
MEAN_MOTION_DOT = .516566E-2
MEAN_MOTION_DDOT = 0

CCSDS_OMM_VERS = 2.0
CREATION_DATE  = 
ORIGINATOR     = 

OBJECT_NAME    = STARLINK-37065
OBJECT_ID      = 2026-042Q
CENTER_NAME    = EARTH
REF_FRAME      = TEME
TIME_SYSTEM    = UTC
MEAN_ELEMENT_THEORY = SGP/SGP4

EPOCH          = 2026-03-27T11:31:26.577408
MEAN_MOTION    = 15.75546988
ECCENTRICITY   = .0001294
INCLINATION    = 53.1585
RA_OF_ASC_NODE = 105.8417
ARG_OF_PERICENTER = 183.6169
MEAN_ANOMALY   = 176.4842

EPHEMERIS_TYPE = 0
CLASSIFICATION_TYPE = U
NORAD_CAT_ID   = 68083
ELEMENT_SET_NO = 999
REV_AT_EPOCH   = 489
BSTAR          = .22573E-2
MEAN_MOTION_DOT = .365638E-2
MEAN_MOTION_DDOT = 0

CCSDS_OMM_VERS = 2.0
CREATION_DATE  = 
ORIGINATOR     = 

OBJECT_NAME    = STARLINK-37037
OBJECT_ID      = 2026-042R
CENTER_NAME    = EARTH
REF_FRAME      = TEME
TIME_SYSTEM    = UTC
MEAN_ELEMENT_THEORY = SGP/SGP4

EPOCH          = 2026-03-28T05:21:38.882880
MEAN_MOTION    = 15.75428835
ECCENTRICITY   = .0001246
INCLINATION    = 53.1595
RA_OF_ASC_NODE = 101.9372
ARG_OF_PERICENTER = 68.9955
MEAN_ANOMALY   = 291.1199

EPHEMERIS_TYPE = 0
CLASSIFICATION_TYPE = U
NORAD_CAT_ID   = 68084
ELEMENT_SET_NO = 999
REV_AT_EPOCH   = 501
BSTAR          = .16578E-2
MEAN_MOTION_DOT = .263737E-2
MEAN_MOTION_DDOT = 0

CCSDS_OMM_VERS = 2.0
CREATION_DATE  = 
ORIGINATOR     = 

OBJECT_NAME    = STARLINK-37068
OBJECT_ID      = 2026-042S
CENTER_NAME    = EARTH
REF_FRAME      = TEME
TIME_SYSTEM    = UTC
MEAN_ELEMENT_THEORY = SGP/SGP4

EPOCH          = 2026-03-28T04:00:01.999584
MEAN_MOTION    = 15.75246869
ECCENTRICITY   = .0001123
INCLINATION    = 53.1591
RA_OF_ASC_NODE = 102.0637
ARG_OF_PERICENTER = 90.8436
MEAN_ANOMALY   = 23.0903

EPHEMERIS_TYPE = 0
CLASSIFICATION_TYPE = U
NORAD_CAT_ID   = 68085
ELEMENT_SET_NO = 999
REV_AT_EPOCH   = 502
BSTAR          = -.40441E-3
MEAN_MOTION_DOT = -.62198E-3
MEAN_MOTION_DDOT = 0

CCSDS_OMM_VERS = 2.0
CREATION_DATE  = 
ORIGINATOR     = 

OBJECT_NAME    = STARLINK-37067
OBJECT_ID      = 2026-042T
CENTER_NAME    = EARTH
REF_FRAME      = TEME
TIME_SYSTEM    = UTC
MEAN_ELEMENT_THEORY = SGP/SGP4

EPOCH          = 2026-03-28T04:57:45.325440
MEAN_MOTION    = 15.81034766
ECCENTRICITY   = .000107
INCLINATION    = 53.1582
RA_OF_ASC_NODE = 101.8267
ARG_OF_PERICENTER = 17.5643
MEAN_ANOMALY   = 342.5416

EPHEMERIS_TYPE = 0
CLASSIFICATION_TYPE = U
NORAD_CAT_ID   = 68086
ELEMENT_SET_NO = 999
REV_AT_EPOCH   = 501
BSTAR          = .20705E-2
MEAN_MOTION_DOT = .432294E-2
MEAN_MOTION_DDOT = 0

CCSDS_OMM_VERS = 2.0
CREATION_DATE  = 
ORIGINATOR     = 

OBJECT_NAME    = STARLINK-37062
OBJECT_ID      = 2026-042U
CENTER_NAME    = EARTH
REF_FRAME      = TEME
TIME_SYSTEM    = UTC
MEAN_ELEMENT_THEORY = SGP/SGP4

EPOCH          = 2026-03-27T18:19:26.048352
MEAN_MOTION    = 15.80975264
ECCENTRICITY   = .00018886
INCLINATION    = 53.1576
RA_OF_ASC_NODE = 104.0397
ARG_OF_PERICENTER = 71.4956
MEAN_ANOMALY   = 288.6272

EPHEMERIS_TYPE = 0
CLASSIFICATION_TYPE = U
NORAD_CAT_ID   = 68087
ELEMENT_SET_NO = 999
REV_AT_EPOCH   = 494
BSTAR          = .19312248E-2
MEAN_MOTION_DOT = .400558E-2
MEAN_MOTION_DDOT = 0

CCSDS_OMM_VERS = 2.0
CREATION_DATE  = 
ORIGINATOR     = 

OBJECT_NAME    = STARLINK-37059
OBJECT_ID      = 2026-042V
CENTER_NAME    = EARTH
REF_FRAME      = TEME
TIME_SYSTEM    = UTC
MEAN_ELEMENT_THEORY = SGP/SGP4

EPOCH          = 2026-03-28T04:00:01.999584
MEAN_MOTION    = 15.78318545
ECCENTRICITY   = .0001049
INCLINATION    = 53.1583
RA_OF_ASC_NODE = 102.0158
ARG_OF_PERICENTER = 75.2600
MEAN_ANOMALY   = 62.2584

EPHEMERIS_TYPE = 0
CLASSIFICATION_TYPE = U
NORAD_CAT_ID   = 68088
ELEMENT_SET_NO = 999
REV_AT_EPOCH   = 502
BSTAR          = -.12708E-1
MEAN_MOTION_DOT = -.1940069E-1
MEAN_MOTION_DDOT = 0

CCSDS_OMM_VERS = 2.0
CREATION_DATE  = 
ORIGINATOR     = 

OBJECT_NAME    = STARLINK-37004
OBJECT_ID      = 2026-042W
CENTER_NAME    = EARTH
REF_FRAME      = TEME
TIME_SYSTEM    = UTC
MEAN_ELEMENT_THEORY = SGP/SGP4

EPOCH          = 2026-03-28T04:00:01.999584
MEAN_MOTION    = 15.75322328
ECCENTRICITY   = .0001302
INCLINATION    = 53.1590
RA_OF_ASC_NODE = 102.0595
ARG_OF_PERICENTER = 101.7542
MEAN_ANOMALY   = 14.0278

EPHEMERIS_TYPE = 0
CLASSIFICATION_TYPE = U
NORAD_CAT_ID   = 68089
ELEMENT_SET_NO = 999
REV_AT_EPOCH   = 502
BSTAR          = -.10977E-2
MEAN_MOTION_DOT = -.166244E-2
MEAN_MOTION_DDOT = 0

CCSDS_OMM_VERS = 2.0
CREATION_DATE  = 
ORIGINATOR     = 

OBJECT_NAME    = STARLINK-36320
OBJECT_ID      = 2026-042X
CENTER_NAME    = EARTH
REF_FRAME      = TEME
TIME_SYSTEM    = UTC
MEAN_ELEMENT_THEORY = SGP/SGP4

EPOCH          = 2026-03-27T03:41:33.349344
MEAN_MOTION    = 15.75432358
ECCENTRICITY   = .00027632
INCLINATION    = 53.1593
RA_OF_ASC_NODE = 107.3571
ARG_OF_PERICENTER = 139.4736
MEAN_ANOMALY   = 220.6491

EPHEMERIS_TYPE = 0
CLASSIFICATION_TYPE = U
NORAD_CAT_ID   = 68090
ELEMENT_SET_NO = 999
REV_AT_EPOCH   = 484
BSTAR          = .2325439E-2
MEAN_MOTION_DOT = .375248E-2
MEAN_MOTION_DDOT = 0

CCSDS_OMM_VERS = 2.0
CREATION_DATE  = 
ORIGINATOR     = 

OBJECT_NAME    = STARLINK-36324
OBJECT_ID      = 2026-042Y
CENTER_NAME    = EARTH
REF_FRAME      = TEME
TIME_SYSTEM    = UTC
MEAN_ELEMENT_THEORY = SGP/SGP4

EPOCH          = 2026-03-27T16:00:01.999584
MEAN_MOTION    = 15.75281960
ECCENTRICITY   = .00010156
INCLINATION    = 53.1590
RA_OF_ASC_NODE = 104.8665
ARG_OF_PERICENTER = 79.2879
MEAN_ANOMALY   = 283.0326

EPHEMERIS_TYPE = 0
CLASSIFICATION_TYPE = U
NORAD_CAT_ID   = 68091
ELEMENT_SET_NO = 999
REV_AT_EPOCH   = 493
BSTAR          = -.52598243E-3
MEAN_MOTION_DOT = -.80651E-3
MEAN_MOTION_DDOT = 0

CCSDS_OMM_VERS = 2.0
CREATION_DATE  = 
ORIGINATOR     = 

OBJECT_NAME    = STARLINK-36896
OBJECT_ID      = 2026-042Z
CENTER_NAME    = EARTH
REF_FRAME      = TEME
TIME_SYSTEM    = UTC
MEAN_ELEMENT_THEORY = SGP/SGP4

EPOCH          = 2026-03-27T11:11:50.155008
MEAN_MOTION    = 15.75276808
ECCENTRICITY   = .0001471
INCLINATION    = 53.1600
RA_OF_ASC_NODE = 105.7516
ARG_OF_PERICENTER = 99.5875
MEAN_ANOMALY   = 260.5312

EPHEMERIS_TYPE = 0
CLASSIFICATION_TYPE = U
NORAD_CAT_ID   = 68092
ELEMENT_SET_NO = 999
REV_AT_EPOCH   = 488
BSTAR          = .13015E-2
MEAN_MOTION_DOT = .204089E-2
MEAN_MOTION_DDOT = 0

CCSDS_OMM_VERS = 2.0
CREATION_DATE  = 
ORIGINATOR     = 

OBJECT_NAME    = STARLINK-36251
OBJECT_ID      = 2026-042AA
CENTER_NAME    = EARTH
REF_FRAME      = TEME
TIME_SYSTEM    = UTC
MEAN_ELEMENT_THEORY = SGP/SGP4

EPOCH          = 2026-03-27T18:11:53.053152
MEAN_MOTION    = 15.80988044
ECCENTRICITY   = .00033137
INCLINATION    = 53.1578
RA_OF_ASC_NODE = 104.0040
ARG_OF_PERICENTER = 80.0074
MEAN_ANOMALY   = 280.1322

EPHEMERIS_TYPE = 0
CLASSIFICATION_TYPE = U
NORAD_CAT_ID   = 68093
ELEMENT_SET_NO = 999
REV_AT_EPOCH   = 493
BSTAR          = .20763061E-2
MEAN_MOTION_DOT = .432595E-2
MEAN_MOTION_DDOT = 0

